OBJECT_NAME,OBJECT_ID,EPOCH,MEAN_MOTION,ECCENTRICITY,INCLINATION,RA_OF_ASC_NODE,ARG_OF_PERICENTER,MEAN_ANOMALY,EPHEMERIS_TYPE,CLASSIFICATION_TYPE,NORAD_CAT_ID,ELEMENT_SET_NO,REV_AT_EPOCH,BSTAR,MEAN_MOTION_DOT,MEAN_MOTION_DDOT
TJS-7,2021-077A,2026-07-14T23:12:38.278080,1.00269248,.0002997,0.2865,264.0240,107.5404,169.8930,0,U,49115,999,982,0,-.132E-5,0
CHINASAT 9B,2021-080A,2026-07-14T19:50:13.415424,1.00268776,.00021375,0.0325,88.0153,58.6868,184.9323,0,U,49125,999,1792,0,-.321E-5,0
SHIJIAN-21 (SJ-21),2021-094A,2026-07-14T22:38:51.619200,1.00278005,.00516638,5.1767,61.0098,168.9735,170.4195,0,U,49330,999,563,0,-.359E-5,0
SES-17,2021-095A,2026-07-14T18:13:55.754112,1.00268806,.00007691,0.0240,48.7859,69.0430,21.1585,0,U,49332,999,1813,0,-.28E-5,0
SYRACUSE 4A,2021-095B,2026-07-14T20:37:07.382208,1.00269204,.00015214,0.0248,62.0785,44.1306,181.3010,0,U,49333,999,1822,0,0,0
QZS-1R (MICHIBIKI-1R),2021-096A,2026-07-14T13:49:51.633120,1.00245239,.0754906,37.5157,79.1769,272.2285,280.2291,0,U,49336,999,1728,0,-.304E-5,0
ZHONGXING-1D,2021-114A,2026-07-14T19:10:12.074304,1.00268578,.0000623,0.0401,224.7497,35.0690,90.5582,0,U,49505,999,1709,0,-.345E-5,0
STPSAT-6,2021-118A,2026-07-14T14:35:51.944640,1.00269993,.00009914,0.3894,85.0966,239.7111,74.8417,0,U,49817,999,1684,0,-.53E-6,0
EXPRESS AMU-7,2021-123A,2026-07-14T19:14:19.179168,1.00272883,.00004757,0.0388,265.6064,37.4601,63.1580,0,U,50001,999,1681,0,-.251E-5,0
EXPRESS AMU-3,2021-123B,2026-07-14T21:37:24.729888,1.00269938,.00004496,0.0152,0.6292,346.0397,13.3299,0,U,50002,999,730,0,0,0
TIANLIAN 2-02,2021-124A,2026-07-14T19:21:48.460896,1.00270537,.00016233,0.8701,85.6657,163.3791,145.0285,0,U,50005,999,1689,0,-.24E-6,0
TURKSAT 5B,2021-126A,2026-07-13T11:57:10.554912,1.00271883,.00024959,0.0700,338.4739,12.5122,161.6814,0,U,50212,999,1656,0,.142E-5,0
INMARSAT 6-F1,2021-128A,2026-07-14T18:56:50.854272,1.00270621,.00001314,0.0150,337.9078,309.5711,13.1279,0,U,50319,999,1653,0,-.18E-5,0
SHIYAN-12 01 (SY-12 01),2021-129A,2026-07-13T17:04:05.088864,1.00050328,.0002604,3.7406,79.5526,284.7957,221.7076,0,U,50321,999,1676,0,.143E-5,0
SHIYAN-12 02 (SY-12 02),2021-129B,2026-07-13T18:00:47.805984,1.00477926,.0003036,3.7398,79.5521,70.3677,161.1938,0,U,50322,999,1676,0,-.367E-5,0
TJS-9,2021-135A,2026-07-14T19:12:11.881728,1.00272544,.0002182,0.0459,102.8031,326.1110,289.0338,0,U,50574,999,1670,0,-.307E-5,0
GOES 18,2022-021A,2026-07-14T17:53:57.667776,1.00270740,.00003988,0.0191,127.3347,62.6101,234.1429,0,U,51850,999,686,0,.88E-6,0
ZHONGXING-6D,2022-038A,2026-07-13T20:12:48.756672,1.00272740,.00006039,0.0271,235.5038,296.7652,187.7170,0,U,52255,999,1569,0,-.359E-5,0
NILESAT 301,2022-061A,2026-07-14T21:57:38.693952,1.00269425,.00035091,0.0457,357.3632,82.4922,175.3445,0,U,52817,999,1501,0,-.67E-6,0
CMS-02 (GSAT-24),2022-067A,2026-07-14T08:40:35.152608,1.00269800,.00008603,0.0509,231.1001,121.8996,152.3598,0,U,52903,999,1488,0,-.171E-5,0
MEASAT 3D,2022-067B,2026-07-14T22:24:20.408256,1.00271349,.00005905,0.0451,311.3730,64.3471,344.6591,0,U,52904,999,1492,0,-.25E-5,0
SES-22,2022-071A,2026-07-14T17:53:20.228064,1.00270681,.00008193,0.0257,45.5925,61.8328,314.5010,0,U,52933,999,779,0,0,0
WFOV (USA 332),2022-073A,2026-07-14T17:24:23.003136,1.00267417,.00015049,3.7792,78.1786,214.9101,19.8601,0,U,52940,999,1464,0,-.373E-5,0
TIANLIAN 2-03,2022-078A,2026-07-14T03:12:09.361152,1.00273706,.00009262,0.7376,77.4695,4.6577,268.5483,0,U,53100,999,1481,0,.65E-6,0
SBIRS GEO-6 (USA 336),2022-092A,2026-07-14T17:05:21.401664,1.00270443,.00016359,3.2123,317.9428,154.5282,215.4373,0,U,53355,999,1451,0,-.296E-5,0
EUTELSAT KONNECT VHTS,2022-110A,2026-07-13T23:44:34.604160,1.00267750,.00026557,0.0579,98.5802,1.4940,190.6143,0,U,53765,999,710,0,.1E-6,0
ZHONGXING-1E,2022-112A,2026-07-14T21:47:20.116608,1.00270847,.00008859,0.0209,247.5942,28.0787,65.3353,0,U,53813,999,1412,0,0,0
SES-20,2022-123A,2026-07-14T21:33:40.610016,1.00269110,.000176,0.0178,66.8012,25.2949,60.9681,0,U,53960,999,1381,0,-.109E-5,0
SES-21,2022-123B,2026-07-14T00:49:05.916864,1.00270261,.0001181,0.0398,36.9714,72.5492,63.7350,0,U,53961,999,748,0,0,0
GALAXY 33 (G-33),2022-128A,2026-07-14T17:55:05.060640,1.00272050,.00017707,0.0139,31.8135,88.6741,307.8857,0,U,54026,999,1401,0,.71E-6,0
GALAXY 34 (G-34),2022-128B,2026-07-14T16:13:29.785152,1.00276000,.00015488,0.0271,41.8092,89.7731,275.3412,0,U,54027,999,1418,0,0,0
ANGOSAT 2,2022-131A,2026-07-14T23:47:33.222336,1.00271833,.00001431,0.0206,114.0829,137.8078,60.8360,0,U,54033,999,1375,0,.126E-5,0
