TJS-7                   
1 49115U 21077A   26195.96710970 -.00000132  00000+0  00000+0 0  9994
2 49115   0.2865 264.0240 0002997 107.5404 169.8930  1.00269248  9826
CHINASAT 9B             
1 49125U 21080A   26195.82654416 -.00000321  00000+0  00000+0 0  9996
2 49125   0.0325  88.0153 0002137  58.6868 184.9323  1.00268776 17928
SHIJIAN-21 (SJ-21)      
1 49330U 21094A   26195.94365300 -.00000359  00000+0  00000+0 0  9994
2 49330   5.1767  61.0098 0051663 168.9735 170.4195  1.00278005  5635
SES-17                  
1 49332U 21095A   26195.75967308 -.00000280  00000+0  00000+0 0  9995
2 49332   0.0240  48.7859 0000769  69.0430  21.1585  1.00268806 18130
SYRACUSE 4A             
1 49333U 21095B   26195.85911322  .00000000  00000+0  00000+0 0  9991
2 49333   0.0248  62.0785 0001521  44.1306 181.3010  1.00269204 18224
QZS-1R (MICHIBIKI-1R)   
1 49336U 21096A   26195.57629205 -.00000304  00000+0  00000+0 0  9998
2 49336  37.5157  79.1769 0754906 272.2285 280.2291  1.00245239 17281
ZHONGXING-1D            
1 49505U 21114A   26195.79875086 -.00000345  00000+0  00000+0 0  9996
2 49505   0.0401 224.7497 0000623  35.0690  90.5582  1.00268578 17092
STPSAT-6                
1 49817U 21118A   26195.60824010 -.00000053  00000+0  00000+0 0  9993
2 49817   0.3894  85.0966 0000991 239.7111  74.8417  1.00269993 16841
EXPRESS AMU-7           
1 50001U 21123A   26195.80161087 -.00000251  00000+0  00000+0 0  9996
2 50001   0.0388 265.6064 0000475  37.4601  63.1580  1.00272883 16813
EXPRESS AMU-3           
1 50002U 21123B   26195.90098067  .00000000  00000+0  00000+0 0  9996
2 50002   0.0152   0.6292 0000449 346.0397  13.3299  1.00269938  7300
TIANLIAN 2-02           
1 50005U 21124A   26195.80681089 -.00000024  00000+0  00000+0 0  9998
2 50005   0.8701  85.6657 0001623 163.3791 145.0285  1.00270537 16891
TURKSAT 5B              
1 50212U 21126A   26194.49803883  .00000142  00000+0  00000+0 0  9992
2 50212   0.0700 338.4739 0002495  12.5122 161.6814  1.00271883 16564
INMARSAT 6-F1           
1 50319U 21128A   26195.78947748 -.00000180  00000+0  00000+0 0  9997
2 50319   0.0150 337.9078 0000131 309.5711  13.1279  1.00270621 16531
SHIYAN-12 01 (SY-12 01) 
1 50321U 21129A   26194.71117001  .00000143  00000+0  00000+0 0  9992
2 50321   3.7406  79.5526 0002604 284.7957 221.7076  1.00050328 16765
SHIYAN-12 02 (SY-12 02) 
1 50322U 21129B   26194.75055331 -.00000367  00000+0  00000+0 0  9993
2 50322   3.7398  79.5521 0003036  70.3677 161.1938  1.00477926 16760
TJS-9                   
1 50574U 21135A   26195.80013752 -.00000307  00000+0  00000+0 0  9991
2 50574   0.0459 102.8031 0002182 326.1110 289.0338  1.00272544 16705
GOES 18                 
1 51850U 22021A   26195.74580634  .00000088  00000+0  00000+0 0  9990
2 51850   0.0191 127.3347 0000398  62.6101 234.1429  1.00270740  6861
ZHONGXING-6D            
1 52255U 22038A   26194.84223098 -.00000359  00000+0  00000+0 0  9998
2 52255   0.0271 235.5038 0000603 296.7652 187.7170  1.00272740 15698
NILESAT 301             
1 52817U 22061A   26195.91503118 -.00000067  00000+0  00000+0 0  9997
2 52817   0.0457 357.3632 0003509  82.4922 175.3445  1.00269425 15019
CMS-02 (GSAT-24)        
1 52903U 22067A   26195.36151797 -.00000171  00000+0  00000+0 0  9996
2 52903   0.0509 231.1001 0000860 121.8996 152.3598  1.00269800 14883
MEASAT 3D               
1 52904U 22067B   26195.93356954 -.00000250  00000+0  00000+0 0  9990
2 52904   0.0451 311.3730 0000590  64.3471 344.6591  1.00271349 14924
SES-22                  
1 52933U 22071A   26195.74537301  .00000000  00000+0  00000+0 0  9995
2 52933   0.0257  45.5925 0000819  61.8328 314.5010  1.00270681  7796
WFOV (USA 332)          
1 52940U 22073A   26195.72526624 -.00000373  00000+0  00000+0 0  9993
2 52940   3.7792  78.1786 0001504 214.9101  19.8601  1.00267417 14643
TIANLIAN 2-03           
1 53100U 22078A   26195.13344168  .00000065  00000+0  00000+0 0  9990
2 53100   0.7376  77.4695 0000926   4.6577 268.5483  1.00273706 14814
SBIRS GEO-6 (USA 336)   
1 53355U 22092A   26195.71205326 -.00000296  00000+0  00000+0 0  9991
2 53355   3.2123 317.9428 0001635 154.5282 215.4373  1.00270443 14517
EUTELSAT KONNECT VHTS   
1 53765U 22110A   26194.98928940  .00000010  00000+0  00000+0 0  9992
2 53765   0.0579  98.5802 0002655   1.4940 190.6143  1.00267750  7107
ZHONGXING-1E            
1 53813U 22112A   26195.90787172  .00000000  00000+0  00000+0 0  9990
2 53813   0.0209 247.5942 0000885  28.0787  65.3353  1.00270847 14121
SES-20                  
1 53960U 22123A   26195.89838669 -.00000109  00000+0  00000+0 0  9992
2 53960   0.0178  66.8012 0001760  25.2949  60.9681  1.00269110 13812
SES-21                  
1 53961U 22123B   26195.03409626  .00000000  00000+0  00000+0 0  9995
2 53961   0.0398  36.9714 0001181  72.5492  63.7350  1.00270261  7488
GALAXY 33 (G-33)        
1 54026U 22128A   26195.74658635  .00000071  00000+0  00000+0 0  9995
2 54026   0.0139  31.8135 0001770  88.6741 307.8857  1.00272050 14013
GALAXY 34 (G-34)        
1 54027U 22128B   26195.67603918  .00000000  00000+0  00000+0 0  9994
2 54027   0.0271  41.8092 0001548  89.7731 275.3412  1.00276000 14181
ANGOSAT 2               
1 54033U 22131A   26195.99135674  .00000126  00000+0  00000+0 0  9998
2 54033   0.0206 114.0829 0000143 137.8078  60.8360  1.00271833 13756
